start=new Date('2023-06-21T00:00:00.000Z').valueOf();
sats=[{"FILE":"3938544","RA_OF_ASC_NODE":"358.9403","TLE_LINE1":"1 55312U 23010AV  23171.84046236  .00001060  00000-0  10585-4 0  9999","COUNTRY_CODE":"US","PERIOD":"91.724","TLE_LINE2":"2 55312  69.9978 358.9403 0003614 276.0230  84.0554 15.69932509 25644","MEAN_MOTION_DDOT":"0.0000000000000","MEAN_ANOMALY":"84.0554","LAUNCH_DATE":"2023-01-19","EPOCH":"2023-06-20T20:10:15.947904","ARG_OF_PERICENTER":"276.0230","MEAN_MOTION":"15.69932509","BSTAR":"0.00001058500000","OBJECT_TYPE":"PAYLOAD","TIME_SYSTEM":"UTC","MEAN_MOTION_DOT":"0.00001060","MEAN_ELEMENT_THEORY":"SGP4","RCS_SIZE":"LARGE","REV_AT_EPOCH":"2564","REF_FRAME":"TEME","OBJECT_NAME":"STARLINK-5296","OBJECT_ID":"2023-010AV","CENTER_NAME":"EARTH","ELEMENT_SET_NO":"999","EPHEMERIS_TYPE":"0","PERIAPSIS":"356.657","APOAPSIS":"361.527","GP_ID":"234397053","NORAD_CAT_ID":"55312","SEMIMAJOR_AXIS":"6737.227","DECAY_DATE":null,"CLASSIFICATION_TYPE":"U","ECCENTRICITY":"0.00036140","INCLINATION":"69.9978","SITE":"AFWTR"},{"TLE_LINE1":"1 55313U 23010AW  23171.84170655  .00001393  00000-0  13347-4 0  9991","RA_OF_ASC_NODE":"0.6772","FILE":"3938544","PERIOD":"91.723","COUNTRY_CODE":"US","TLE_LINE2":"2 55313  69.9983   0.6772 0003678 263.3995  96.6782 15.69939024 25605","MEAN_MOTION_DDOT":"0.0000000000000","MEAN_ANOMALY":"96.6782","LAUNCH_DATE":"2023-01-19","ARG_OF_PERICENTER":"263.3995","EPOCH":"2023-06-20T20:12:03.445920","MEAN_MOTION":"15.69939024","OBJECT_TYPE":"PAYLOAD","BSTAR":"0.00001334700000","MEAN_MOTION_DOT":"0.00001393","TIME_SYSTEM":"UTC","MEAN_ELEMENT_THEORY":"SGP4","RCS_SIZE":"LARGE","REV_AT_EPOCH":"2560","REF_FRAME":"TEME","OBJECT_NAME":"STARLINK-5313","CENTER_NAME":"EARTH","OBJECT_ID":"2023-010AW","EPHEMERIS_TYPE":"0","ELEMENT_SET_NO":"999","APOAPSIS":"361.551","PERIAPSIS":"356.596","NORAD_CAT_ID":"55313","GP_ID":"234397301","SEMIMAJOR_AXIS":"6737.208","CLASSIFICATION_TYPE":"U","DECAY_DATE":null,"ECCENTRICITY":"0.00036780","INCLINATION":"69.9983","SITE":"AFWTR"},{"SITE":"AFWTR","INCLINATION":"69.9973","ECCENTRICITY":"0.00034460","DECAY_DATE":null,"CLASSIFICATION_TYPE":"U","GP_ID":"234395553","NORAD_CAT_ID":"55314","SEMIMAJOR_AXIS":"6737.244","PERIAPSIS":"356.788","APOAPSIS":"361.431","ELEMENT_SET_NO":"999","EPHEMERIS_TYPE":"0","OBJECT_ID":"2023-010AX","CENTER_NAME":"EARTH","OBJECT_NAME":"STARLINK-5305","REF_FRAME":"TEME","REV_AT_EPOCH":"2560","RCS_SIZE":"LARGE","MEAN_ELEMENT_THEORY":"SGP4","TIME_SYSTEM":"UTC","MEAN_MOTION_DOT":"-0.00000367","BSTAR":"-0.00000127820000","OBJECT_TYPE":"PAYLOAD","MEAN_MOTION":"15.69926442","ARG_OF_PERICENTER":"265.0412","EPOCH":"2023-06-20T20:11:37.019616","LAUNCH_DATE":"2023-01-19","MEAN_ANOMALY":"95.0390","MEAN_MOTION_DDOT":"0.0000000000000","TLE_LINE2":"2 55314  69.9973   0.6771 0003446 265.0412  95.0390 15.69926442 25608","COUNTRY_CODE":"US","PERIOD":"91.724","FILE":"3938544","RA_OF_ASC_NODE":"0.6771","TLE_LINE1":"1 55314U 23010AX  23171.84140069 -.00000367  00000-0 -12782-5 0  9993"},{"SITE":"AFWTR","INCLINATION":"69.9991","CLASSIFICATION_TYPE":"U","DECAY_DATE":null,"ECCENTRICITY":"0.00033200","ELEMENT_SET_NO":"999","EPHEMERIS_TYPE":"0","CENTER_NAME":"EARTH","OBJECT_ID":"2023-010AY","GP_ID":"234396303","SEMIMAJOR_AXIS":"6947.162","NORAD_CAT_ID":"55315","APOAPSIS":"571.333","PERIAPSIS":"566.720","RCS_SIZE":"LARGE","MEAN_ELEMENT_THEORY":"SGP4","OBJECT_NAME":"STARLINK-4623","REF_FRAME":"TEME","REV_AT_EPOCH":"2454","MEAN_MOTION":"14.99310766","TIME_SYSTEM":"UTC","MEAN_MOTION_DOT":"0.00001288","OBJECT_TYPE":"PAYLOAD","BSTAR":"0.00011292000000","MEAN_ANOMALY":"90.6184","EPOCH":"2023-06-20T20:51:22.369824","ARG_OF_PERICENTER":"269.4595","LAUNCH_DATE":"2023-01-19","MEAN_MOTION_DDOT":"0.0000000000000","RA_OF_ASC_NODE":"7.7364","TLE_LINE1":"1 55315U 23010AY  23171.86900891  .00001288  00000-0  11292-3 0  9997","FILE":"3938544","TLE_LINE2":"2 55315  69.9991   7.7364 0003320 269.4595  90.6184 14.99310766 24548","PERIOD":"96.044","COUNTRY_CODE":"US"},{"MEAN_ANOMALY":"90.1391","EPOCH":"2023-06-20T20:54:48.547872","ARG_OF_PERICENTER":"269.9364","LAUNCH_DATE":"2023-01-19","MEAN_MOTION":"15.69956547","MEAN_MOTION_DOT":"0.00037620","TIME_SYSTEM":"UTC","BSTAR":"0.00031279000000","OBJECT_TYPE":"PAYLOAD","RA_OF_ASC_NODE":"0.7922","TLE_LINE1":"1 55316U 23010AZ  23171.87139523  .00037620  00000-0  31279-3 0  9991","FILE":"3938544","TLE_LINE2":"2 55316  69.9996   0.7922 0003845 269.9364  90.1391 15.69956547 25602","PERIOD":"91.722","COUNTRY_CODE":"US","MEAN_MOTION_DDOT":"0.0000000000000","CLASSIFICATION_TYPE":"U","DECAY_DATE":null,"ECCENTRICITY":"0.00038450","SITE":"AFWTR","INCLINATION":"69.9996","RCS_SIZE":"LARGE","MEAN_ELEMENT_THEORY":"SGP4","OBJECT_NAME":"STARLINK-5257","REF_FRAME":"TEME","REV_AT_EPOCH":"2560","ELEMENT_SET_NO":"999","EPHEMERIS_TYPE":"0","CENTER_NAME":"EARTH","OBJECT_ID":"2023-010AZ","GP_ID":"234396554","SEMIMAJOR_AXIS":"6737.158","NORAD_CAT_ID":"55316","APOAPSIS":"361.614","PERIAPSIS":"356.433"},{"OBJECT_NAME":"STARLINK-5265","REF_FRAME":"TEME","REV_AT_EPOCH":"2560","RCS_SIZE":"LARGE","MEAN_ELEMENT_THEORY":"SGP4","GP_ID":"234396802","SEMIMAJOR_AXIS":"6737.216","NORAD_CAT_ID":"55317","PERIAPSIS":"356.563","APOAPSIS":"361.598","ELEMENT_SET_NO":"999","EPHEMERIS_TYPE":"0","OBJECT_ID":"2023-010BA","CENTER_NAME":"EARTH","ECCENTRICITY":"0.00037370","DECAY_DATE":null,"CLASSIFICATION_TYPE":"U","SITE":"AFWTR","INCLINATION":"69.9997","TLE_LINE2":"2 55317  69.9997   0.6766 0003737 266.5535  93.5234 15.69936529 25603","COUNTRY_CODE":"US","PERIOD":"91.723","FILE":"3938544","TLE_LINE1":"1 55317U 23010BA  23171.84149894  .00002760  00000-0  24699-4 0  9997","RA_OF_ASC_NODE":"0.6766","MEAN_MOTION_DDOT":"0.0000000000000","ARG_OF_PERICENTER":"266.5535","EPOCH":"2023-06-20T20:11:45.508416","LAUNCH_DATE":"2023-01-19","MEAN_ANOMALY":"93.5234","MEAN_MOTION_DOT":"0.00002760","TIME_SYSTEM":"UTC","OBJECT_TYPE":"PAYLOAD","BSTAR":"0.00002469900000","MEAN_MOTION":"15.69936529"},{"OBJECT_TYPE":"PAYLOAD","BSTAR":"0.00001067400000","MEAN_MOTION_DOT":"0.00001071","TIME_SYSTEM":"UTC","MEAN_MOTION":"15.69930346","LAUNCH_DATE":"2023-01-19","ARG_OF_PERICENTER":"269.3128","EPOCH":"2023-06-20T20:11:27.608064","MEAN_ANOMALY":"90.7655","MEAN_MOTION_DDOT":"0.0000000000000","PERIOD":"91.724","COUNTRY_CODE":"US","TLE_LINE2":"2 55318  69.9993   0.6764 0003599 269.3128  90.7655 15.69930346 25600","TLE_LINE1":"1 55318U 23010BB  23171.84129176  .00001071  00000-0  10674-4 0  9991","RA_OF_ASC_NODE":"0.6764","FILE":"3938544","INCLINATION":"69.9993","SITE":"AFWTR","ECCENTRICITY":"0.00035990","CLASSIFICATION_TYPE":"U","DECAY_DATE":null,"APOAPSIS":"361.523","PERIAPSIS":"356.674","SEMIMAJOR_AXIS":"6737.233","GP_ID":"234396053","NORAD_CAT_ID":"55318","CENTER_NAME":"EARTH","OBJECT_ID":"2023-010BB","ELEMENT_SET_NO":"999","EPHEMERIS_TYPE":"0","REV_AT_EPOCH":"2560","REF_FRAME":"TEME","OBJECT_NAME":"STARLINK-5180","MEAN_ELEMENT_THEORY":"SGP4","RCS_SIZE":"LARGE"},{"PERIOD":"91.724","COUNTRY_CODE":"US","TLE_LINE2":"2 55319  69.9979   0.6759 0003359 268.2004  91.8807 15.69928738 25607","TLE_LINE1":"1 55319U 23010BC  23171.84118811  .00000621  00000-0  69320-5 0  9999","RA_OF_ASC_NODE":"0.6759","FILE":"3938544","MEAN_MOTION_DDOT":"0.0000000000000","LAUNCH_DATE":"2023-01-19","ARG_OF_PERICENTER":"268.2004","EPOCH":"2023-06-20T20:11:18.652704","MEAN_ANOMALY":"91.8807","BSTAR":"0.00000693200000","OBJECT_TYPE":"PAYLOAD","TIME_SYSTEM":"UTC","MEAN_MOTION_DOT":"0.00000621","MEAN_MOTION":"15.69928738","REV_AT_EPOCH":"2560","REF_FRAME":"TEME","OBJECT_NAME":"STARLINK-5196","MEAN_ELEMENT_THEORY":"SGP4","RCS_SIZE":"LARGE","APOAPSIS":"361.366","PERIAPSIS":"356.840","GP_ID":"234395804","NORAD_CAT_ID":"55319","SEMIMAJOR_AXIS":"6737.238","CENTER_NAME":"EARTH","OBJECT_ID":"2023-010BC","ELEMENT_SET_NO":"999","EPHEMERIS_TYPE":"0","ECCENTRICITY":"0.00033590","CLASSIFICATION_TYPE":"U","DECAY_DATE":null,"INCLINATION":"69.9979","SITE":"AFWTR"},{"OBJECT_ID":"2023-013A","CENTER_NAME":"EARTH","EPHEMERIS_TYPE":"0","ELEMENT_SET_NO":"999","PERIAPSIS":"557.834","APOAPSIS":"560.269","GP_ID":"234396054","NORAD_CAT_ID":"55331","SEMIMAJOR_AXIS":"6937.186","MEAN_ELEMENT_THEORY":"SGP4","RCS_SIZE":"LARGE","REV_AT_EPOCH":"2341","REF_FRAME":"TEME","OBJECT_NAME":"STARLINK-5492","INCLINATION":"43.0046","SITE":"AFETR","DECAY_DATE":null,"CLASSIFICATION_TYPE":"U","ECCENTRICITY":"0.00017550","MEAN_MOTION_DDOT":"0.0000000000000","FILE":"3938544","RA_OF_ASC_NODE":"296.3578","TLE_LINE1":"1 55331U 23013A   23171.70302201 -.00000007  00000-0  14588-4 0  9993","COUNTRY_CODE":"US","PERIOD":"95.837","TLE_LINE2":"2 55331  43.0046 296.3578 0001755 270.2814  89.7827 15.02545871 23417","MEAN_MOTION":"15.02545871","BSTAR":"0.00001458800000","OBJECT_TYPE":"PAYLOAD","TIME_SYSTEM":"UTC","MEAN_MOTION_DOT":"-0.00000007","MEAN_ANOMALY":"89.7827","LAUNCH_DATE":"2023-01-26","ARG_OF_PERICENTER":"270.2814","EPOCH":"2023-06-20T16:52:21.101664"},{"TIME_SYSTEM":"UTC","MEAN_MOTION_DOT":"0.00000396","BSTAR":"0.00004438400000","OBJECT_TYPE":"PAYLOAD","MEAN_MOTION":"15.02539300","EPOCH":"2023-06-20T16:20:45.231648","ARG_OF_PERICENTER":"267.9274","LAUNCH_DATE":"2023-01-26","MEAN_ANOMALY":"92.1367","MEAN_MOTION_DDOT":"0.0000000000000","TLE_LINE2":"2 55332  43.0031 283.1730 0001760 267.9274  92.1367 15.02539300 22488","COUNTRY_CODE":"US","PERIOD":"95.838","FILE":"3938544","RA_OF_ASC_NODE":"283.1730","TLE_LINE1":"1 55332U 23013B   23171.68107907  .00000396  00000-0  44384-4 0  9994","SITE":"AFETR","INCLINATION":"43.0031","ECCENTRICITY":"0.00017600","DECAY_DATE":null,"CLASSIFICATION_TYPE":"U","SEMIMAJOR_AXIS":"6937.206","GP_ID":"234395805","NORAD_CAT_ID":"55332","PERIAPSIS":"557.850","APOAPSIS":"560.292","ELEMENT_SET_NO":"999","EPHEMERIS_TYPE":"0","OBJECT_ID":"2023-013B","CENTER_NAME":"EARTH","REF_FRAME":"TEME","OBJECT_NAME":"STARLINK-5491","REV_AT_EPOCH":"2248","RCS_SIZE":"LARGE","MEAN_ELEMENT_THEORY":"SGP4"}];
